STARLINK-1363
1 45568U 20025AP  26061.08628074  .00104902  00000+0  69173-3 0  9991
2 45568  53.0430  75.6389 0008665  28.6284 331.5209 15.74797541324853
STARLINK-1681
1 46559U 20070AD  26061.16668981  .00104240  00000+0  68748-3 0  9994
2 46559  53.0496 111.9108 0009108 340.3458 175.8203 15.74791283  5990
STARLINK-1975
1 47573U 21009AB  26061.16668981  .00156282  00000+0  10245-2 0  9995
2 47573  53.0534 346.6040 0006226  81.7849 184.0318 15.74773054  5849
